[{"OBJECT_NAME":"NUSHSAT1","OBJECT_ID":"2025-052B","EPOCH":"2026-03-09T15:31:41.225952","MEAN_MOTION":15.31903202,"ECCENTRICITY":0.0005501,"INCLINATION":97.4095,"RA_OF_ASC_NODE":325.7239,"ARG_OF_PERICENTER":84.7512,"MEAN_ANOMALY":275.4357,"EPHEMERIS_TYPE":0,"CLASSIFICATION_TYPE":"U","NORAD_CAT_ID":63211,"ELEMENT_SET_NO":999,"REV_AT_EPOCH":5488,"BSTAR":0.00074857,"MEAN_MOTION_DOT":0.00023034,"MEAN_MOTION_DDOT":0},{"OBJECT_NAME":"STARLINK-34460","OBJECT_ID":"2025-236P","EPOCH":"2026-03-09T09:26:12.759072","MEAN_MOTION":15.30192746,"ECCENTRICITY":0.00013666,"INCLINATION":53.1578,"RA_OF_ASC_NODE":104.9334,"ARG_OF_PERICENTER":59.2277,"MEAN_ANOMALY":300.8858,"EPHEMERIS_TYPE":0,"CLASSIFICATION_TYPE":"U","NORAD_CAT_ID":66099,"ELEMENT_SET_NO":999,"REV_AT_EPOCH":2290,"BSTAR":0.00045447684,"MEAN_MOTION_DOT":0.00013122,"MEAN_MOTION_DDOT":0}]
